MEAN_MOTION;ECCENTRICITY;INCLINATION;RA_OF_ASC_NODE;ARG_OF_PERICENTER;MEAN_ANOMALY;BSTAR;MEAN_MOTION_DOT;MEAN_MOTION_DDOT;TYPE
11.76727847;0.0006153;51.9822;345.1426;355.6043;83.5896;0.00034327;-5.9E-7;0;Globalstar
11.76727817;0.0006162;51.9821;344.6849;356.0385;113.3229;0.00027468;-6.4E-7;0;Globalstar
11.76727692;0.000616;51.982;342.5038;357.7454;85.744;3.8873E-5;-7.8E-7;0;Globalstar
11.76727633;0.000618;51.9819;340.0928;359.5647;75.4576;-9.3586E-5;-8.6E-7;0;Globalstar
11.76727636;0.0006183;51.9819;339.8697;359.805;80.8921;-9.402E-5;-8.6E-7;0;Globalstar
11.76727646;0.0006183;51.9819;339.6379;0.035;100.6615;-7.0126E-5;-8.5E-7;0;Globalstar
11.76727723;0.0006208;51.9818;337.6967;1.5953;40.8503;7.8E-5;-7.5E-7;0;Globalstar
11.76727764;0.000623;51.9818;336.7499;2.4041;152.3787;0.00024769;-6.5E-7;0;Globalstar
11.76727836;0.0006229;51.9818;335.5195;3.3286;7.8559;0.00039847;-5.6E-7;0;Globalstar
11.76727857;0.0006228;51.9818;335.2874;3.5625;28.0703;0.00041382;-5.5E-7;0;Globalstar
11.76728035;0.0006242;51.9817;332.6477;5.6121;32.2047;0.00065734;-4.0E-7;0;Globalstar
11.76728065;0.0006257;51.9816;331.4682;6.4905;164.6774;0.00071786;-3.7E-7;0;Globalstar
11.76728204;0.0006199;51.9813;329.0615;8.0784;147.2929;0.00072589;-3.6E-7;0;Globalstar
11.76728459;0.0006244;51.981;324.6895;11.2623;109.7986;0.00079532;-3.2E-7;0;Globalstar
11.76728451;0.0006242;51.981;324.4708;11.457;108.101;0.00076428;-3.4E-7;0;Globalstar
11.76728491;0.0006255;51.9808;322.0799;13.2587;64.8281;0.00061778;-4.3E-7;0;Globalstar
11.76728217;0.0006234;51.9805;319.4409;15.5666;67.0552;0.00011237;-7.3E-7;0;Globalstar
11.76728151;0.0006252;51.9805;319.2121;15.5875;82.0617;-1.788E-5;-8.1E-7;0;Globalstar
11.76728009;0.0006266;51.9803;316.5735;17.5326;84.4141;-0.00022382;-9.4E-7;0;Globalstar
11.76728;0.0006267;51.9803;316.0911;17.9096;154.6675;-0.00023388;-9.4E-7;0;Globalstar
11.76727981;0.0006272;51.9802;314.3906;19.1974;60.4214;-0.00025858;-9.6E-7;0;Globalstar
11.76727992;0.0006278;51.9801;313.9138;19.5632;121.5421;-0.00023379;-9.4E-7;0;Globalstar
11.76727948;0.0006283;51.98;311.7523;21.1455;62.1952;-0.00026691;-9.7E-7;0;Globalstar
11.76727962;0.0006283;51.98;311.5234;21.3785;77.1464;-0.00024887;-9.5E-7;0;Globalstar
11.76727952;0.0006299;51.9799;311.0438;21.7072;143.0222;-0.0003047;-9.9E-7;0;Globalstar
11.76728052;0.0006297;51.9797;308.885;23.3835;79.1718;-5.4995E-5;-8.4E-7;0;Globalstar
11.76728097;0.0006308;51.9796;306.2267;25.3294;113.8351;3.6929E-5;-7.8E-7;0;Globalstar
11.76728108;0.0006308;51.9796;305.996;25.5023;131.7657;5.5229E-5;-7.7E-7;0;Globalstar
11.76728177;0.0006331;51.9792;303.8354;27.2548;71.2185;0.00034679;-5.9E-7;0;Globalstar
11.76728214;0.0006335;51.9791;301.1961;29.2165;74.6257;0.00035746;-5.8E-7;0;Globalstar
11.76728242;0.0006344;51.979;299.4852;30.4352;357.3072;0.00034877;-5.9E-7;0;Globalstar
11.76728251;0.0006347;51.9791;299.014;30.8043;48.9925;0.00033376;-6.0E-7;0;Globalstar
11.76728253;0.0006354;51.979;297.0778;32.2239;340.6059;0.00026713;-6.4E-7;0;Globalstar
11.76728286;0.0006354;51.9788;293.7386;34.7372;50.4367;0.00012293;-7.3E-7;0;Globalstar
11.76728289;0.0006356;51.9788;293.5074;34.8917;69.2941;0.00012767;-7.2E-7;0;Globalstar
11.76728279;0.0006363;51.9787;293.0214;35.1903;145.5714;8.5659E-5;-7.5E-7;0;Globalstar
11.76728267;0.000637;51.9786;290.6122;36.9298;132.0067;-1.659E-5;-8.1E-7;0;Globalstar
11.76728256;0.0006368;51.9785;289.3889;37.821;335.7942;-7.1744E-5;-8.5E-7;0;Globalstar
11.76728257;0.0006363;51.9785;288.457;38.5547;62.3753;-9.6446E-5;-8.6E-7;0;Globalstar
11.76728261;0.0006367;51.9784;287.9751;38.8877;131.672;-8.8774E-5;-8.6E-7;0;Globalstar
11.76728227;0.0006374;51.9783;285.5604;40.6242;127.0855;-0.00013977;-8.9E-7;0;Globalstar
11.76728208;0.0006376;51.9783;284.1161;41.6747;332.8967;-0.00015288;-9.0E-7;0;Globalstar
11.76728241;0.0006349;51.9785;280.7689;44.0019;55.7858;2.7592E-5;-7.9E-7;0;Globalstar
11.76728218;0.0006343;51.9785;279.0588;45.2349;337.0415;-2.3136E-5;-8.2E-7;0;Globalstar
11.76728146;0.0006339;51.9784;275.9475;47.4789;33.6985;-0.0001418;-8.9E-7;0;Globalstar
11.7672812;0.000634;51.9784;275.2405;47.968;111.8804;-0.00016891;-9.1E-7;0;Globalstar
11.76728055;0.0006339;51.9784;273.0799;49.4724;51.1909;-0.00024439;-9.5E-7;0;Globalstar
11.7672802;0.0006358;51.9784;270.4398;51.2352;56.1687;-0.00026792;-9.7E-7;0;Globalstar
11.76728011;0.0006349;51.9785;268.0247;52.9387;52.3346;-0.00023936;-9.5E-7;0;Globalstar
11.76728109;0.0006339;51.9784;266.0382;54.4855;65.9945;-5.0265E-5;-8.3E-7;0;Globalstar
11.76728111;0.0006337;51.9785;265.3909;54.9689;46.2919;-3.1867E-5;-8.2E-7;0;Globalstar
11.76728175;0.0006341;51.9784;263.4153;56.529;41.7911;-6.3383E-5;-8.4E-7;0;Globalstar
11.76728195;0.000636;51.9784;262.503;57.0071;96.6924;2.5134E-5;-7.9E-7;0;Globalstar
11.76728228;0.0006362;51.9784;259.8579;58.7915;109.89;-9.89E-6;-8.1E-7;0;Globalstar
11.76728227;0.000634;51.9784;257.7013;60.383;42.5103;-0.00010809;-8.7E-7;0;Globalstar
11.76728238;0.0006337;51.9784;256.6373;61.0971;345.6322;-0.00011254;-8.7E-7;0;Globalstar
11.76728272;0.0006334;51.9784;255.52;61.8155;16.0427;-5.9155E-5;-8.4E-7;0;Globalstar
11.76728277;0.0006328;51.9784;253.9983;62.8993;348.793;-1.3407E-5;-8.1E-7;0;Globalstar
11.76728304;0.0006316;51.9784;252.1736;64.2118;97.7728;0.00010619;-7.4E-7;0;Globalstar
11.76728312;0.0006313;51.9784;251.3594;64.7758;351.5257;0.00013423;-7.2E-7;0;Globalstar
11.76728329;0.0006305;51.9785;249.5293;66.0406;109.5672;0.00022712;-6.6E-7;0;Globalstar
11.76728294;0.0006293;51.9785;248.038;67.0695;32.6294;0.00017396;-7.0E-7;0;Globalstar
11.76728294;0.0006294;51.9786;247.3734;67.5165;41.3927;0.00023006;-6.6E-7;0;Globalstar
11.76728286;0.000629;51.9786;245.4078;68.822;21.4788;0.00024081;-6.6E-7;0;Globalstar
11.76728287;0.000629;51.9786;245.1945;68.9668;11.005;0.00025909;-6.4E-7;0;Globalstar
11.76728287;0.0006288;51.9787;244.9646;69.1206;27.6109;0.00027523;-6.4E-7;0;Globalstar
11.76728258;0.0006286;51.9787;242.7814;70.5862;4.1596;0.00018408;-6.9E-7;0;Globalstar
11.76728267;0.0006265;51.9789;240.1439;72.346;5.7411;-7.9143E-5;-8.5E-7;0;Globalstar
11.76728267;0.0006265;51.9789;240.1439;72.346;5.7411;-7.9143E-5;-8.5E-7;0;Globalstar
11.76728363;0.0006271;51.9789;237.5058;74.1747;6.8658;0.00025596;-6.5E-7;0;Globalstar
11.76728365;0.0006268;51.9789;237.0254;74.4697;74.0727;0.00025067;-6.5E-7;0;Globalstar
11.76728389;0.0006253;51.9789;234.6378;76.1348;25.4373;0.00014506;-7.1E-7;0;Globalstar
11.76728422;0.0006238;51.9789;232.4551;77.594;1.4342;5.1703E-5;-7.7E-7;0;Globalstar
11.76728425;0.0006227;51.9789;230.52;78.8376;291.9762;-1.4888E-5;-8.1E-7;0;Globalstar
11.76728424;0.0006221;51.9789;229.5882;79.4741;18.4531;-5.7734E-5;-8.4E-7;0;Globalstar
11.76728388;0.0006209;51.9789;227.1818;81.1897;0.7582;-0.00019095;-9.2E-7;0;Globalstar
11.76728384;0.0006207;51.9789;226.9486;81.3367;22.7794;-0.00019206;-9.2E-7;0;Globalstar
11.76728328;0.0006191;51.9789;224.7672;82.8164;356.4495;-6.4811E-5;-8.4E-7;0;Globalstar
11.76728281;0.0006175;51.9789;222.819;84.0208;308.3749;-0.00015489;-9.0E-7;0;Globalstar
11.76728227;0.0006168;51.9789;221.9;84.6645;13.9483;-0.00024536;-9.5E-7;0;Globalstar
11.76728189;0.0006159;51.9788;219.4924;86.2818;358.1542;-0.00031649;-1.0E-6;0;Globalstar
11.76728184;0.0006159;51.9788;219.2614;86.4525;16.682;-0.0003096;-9.9E-7;0;Globalstar
11.76728294;0.0006142;51.9786;216.6036;88.236;51.0576;0.00028547;-6.3E-7;0;Globalstar
11.76728304;0.0006142;51.9785;216.3695;88.4463;74.2948;0.00032047;-6.1E-7;0;Globalstar
11.76728556;0.0006124;51.9785;213.732;90.2309;75.2112;0.0009367;-2.3E-7;0;Globalstar
11.76728633;0.0006111;51.9784;211.5734;91.6466;11.7738;0.0010219;-1.8E-7;0;Globalstar
11.76728676;0.0006099;51.9784;210.0502;92.6695;347.1174;0.00099388;-2.0E-7;0;Globalstar
11.76728577;0.0006096;51.9784;209.3904;93.2165;347.8557;0.00071672;-3.7E-7;0;Globalstar
11.76728546;0.0006088;51.9783;207.2223;94.5543;300.1379;0.00047851;-5.1E-7;0;Globalstar
11.76728228;0.0006055;51.9783;204.3311;96.5517;356.3263;-0.00040429;-1.05E-6;0;Globalstar
11.76728232;0.0006051;51.9782;203.8849;96.8366;7.4639;-0.00037369;-1.03E-6;0;Globalstar
11.76728169;0.0006037;51.9781;201.7035;98.2894;341.168;-0.0004473;-1.08E-6;0;Globalstar
11.7672815;0.0006036;51.9781;201.0366;98.7101;353.7154;-0.00043613;-1.07E-6;0;Globalstar
11.76728177;0.0006023;51.978;198.8357;100.1594;359.3513;-0.00030994;-9.9E-7;0;Globalstar
11.7672825;0.0006005;51.9779;196.1965;101.9173;3.0547;-9.6768E-5;-8.6E-7;0;Globalstar
11.76728275;0.0005993;51.9778;195.1315;102.5891;307.8571;1.8405E-5;-7.9E-7;0;Globalstar
11.76728342;0.0005987;51.9778;193.5787;103.6846;331.7133;0.00014724;-7.1E-7;0;Globalstar
11.76728395;0.0005964;51.9773;191.1478;105.3374;354.6047;0.00014605;-7.1E-7;0;Globalstar
11.76728472;0.0005945;51.9772;189.1837;106.6202;332.3265;0.00035792;-5.8E-7;0;Globalstar
11.7672851;0.0005946;51.9771;188.5074;107.0561;0.2223;0.0004792;-5.1E-7;0;Globalstar
11.76728669;0.0005908;51.977;184.3552;109.861;322.3748;0.00084352;-2.9E-7;0;Globalstar
11.76728765;0.0005919;51.9768;182.3937;111.1912;295.412;0.00088713;-2.6E-7;0;Globalstar
11.76728798;0.000592;51.9768;181.518;111.7988;289.9113;0.00089606;-2.6E-7;0;Globalstar
11.76728937;0.0005887;51.9767;178.1622;114.0792;27.3833;0.00091128;-2.5E-7;0;Globalstar
11.76728952;0.0005867;51.9766;175.5216;115.8785;33.2707;0.00063147;-4.2E-7;0;Globalstar
11.76728978;0.0005859;51.9766;174.7056;116.4189;290.2144;0.00058322;-4.5E-7;0;Globalstar
11.76728949;0.0005842;51.9765;172.0668;118.2229;292.8209;0.000262;-6.4E-7;0;Globalstar
11.76728901;0.0005841;51.9764;170.4701;119.2916;28.5101;4.641E-5;-7.7E-7;0;Globalstar
11.76728903;0.0005832;51.9763;169.4278;119.9934;296.0607;-1.7782E-5;-8.1E-7;0;Globalstar
11.76728909;0.000583;51.9763;168.5245;120.619;335.7653;-7.8119E-5;-8.5E-7;0;Globalstar
11.767289;0.0005816;51.9762;167.0161;121.5989;286.7266;-0.00013138;-8.8E-7;0;Globalstar
11.76728902;0.0005804;51.9761;165.1852;122.8134;46.0578;-0.0001069;-8.7E-7;0;Globalstar
11.76728889;0.0005786;51.976;162.5532;124.5338;37.6433;-7.6098E-5;-8.5E-7;0;Globalstar
